QIANFAN-209             
1 69808U 26153J   26199.83211117  .00000138  00000+0  54604-4 0  9993
2 69808  88.9926 358.6302 0007791 168.7667 191.3700 14.23086808  2066
QIANFAN-210             
1 69809U 26153K   26199.82852036  .00000128  00000+0  50091-4 0  9999
2 69809  88.9927 358.6297 0008338 171.4616 188.6719 14.23252900  2061
QIANFAN-211             
1 69810U 26153L   26199.82788775  .00000118  00000+0  45419-4 0  9996
2 69810  88.9926 358.6295 0007959 168.4891 191.6485 14.23382425  2069
QIANFAN-212             
1 69811U 26153M   26199.18924639 -.02018720  00000+0 -97540+0 0  9996
2 69811  88.9888 358.7049 0012200 152.0967 208.0882 14.22682297  1975
QIANFAN-213             
1 69812U 26153N   26198.90858229 -.02004805  00000+0 -98228+0 0  9990
2 69812  88.9917 358.7338 0007827 155.5754 204.5809 14.21939575  1930
QIANFAN-214             
1 69813U 26153P   26199.82060194  .00000061  00000+0  19025-4 0  9998
2 69813  88.9926 358.6285 0008124 171.5236 188.6097 14.26672610  2060
QIANFAN-215             
1 69814U 26153Q   26199.82053956  .00000130  00000+0  47483-4 0  9993
2 69814  88.9925 358.6282 0008338 173.8358 186.2940 14.26719051  2066
QIANFAN-216             
1 69815U 26153R   26199.82053090  .00000141  00000+0  52377-4 0  9993
2 69815  88.9926 358.6284 0008320 173.7282 186.4018 14.26720243  2069
QIANFAN-217             
1 69816U 26153S   26199.82003343  .00000049  00000+0  14313-4 0  9995
2 69816  88.9925 358.6282 0008009 170.3536 189.7814 14.26768164  2060
QIANFAN-218             
1 69817U 26153T   26199.81961163  .00000123  00000+0  44758-4 0  9997
2 69817  88.9928 358.6286 0007783 167.6606 192.4780 14.26811327  2066
QIANFAN-219             
1 69848U 26155A   26199.59107009  .00000052  00000+0  15688-4 0  9990
2 69848  89.0064  60.5597 0030833 211.5196 148.4151 14.26455418  1867
QIANFAN-220             
1 69849U 26155B   26199.82465314  .00000046  00000+0  15818-4 0  9991
2 69849  89.0064  60.5391 0029687 210.0208 149.9280 14.17597586  1898
QIANFAN-221             
1 69850U 26155C   26199.87063875  .00000176  00000+0  66474-4 0  9992
2 69850  89.0064  60.5275 0030679 210.9891 148.9494 14.26647912  1908
QIANFAN-222             
1 69851U 26155D   26198.83195585  .00000049  00000+0  15570-4 0  9992
2 69851  89.0065  60.6495 0029555 214.6997 145.2267 14.22185075  1758
QIANFAN-223             
1 69852U 26155E   26199.81478516  .00000165  00000+0  67559-4 0  9993
2 69852  89.0065  60.5379 0029408 210.6808 149.2665 14.22140389  1893
QIANFAN-224             
1 69853U 26155F   26198.89566005 -.01809487  00000+0 -93450+0 0  9993
2 69853  89.0052  60.6399 0031114 224.5648 135.3039 14.18497223  1760
